{"fetched_at":"2026-07-19T17:31:09.790Z","source":"https://celestrak.org/NORAD/elements/gp.php?GROUP=oneweb&FORMAT=JSON","constellation":"oneweb","records":[{"OBJECT_NAME":"ONEWEB-0235","OBJECT_ID":"2021-045E","EPOCH":"2026-07-19T05:23:14.863776","CLASSIFICATION_TYPE":"U","MEAN_MOTION":13.15549954,"ECCENTRICITY":0.00022743,"INCLINATION":87.899,"RA_OF_ASC_NODE":252.81,"ARG_OF_PERICENTER":107.7211,"MEAN_ANOMALY":252.4168,"EPHEMERIS_TYPE":0,"NORAD_CAT_ID":48771,"ELEMENT_SET_NO":999,"REV_AT_EPOCH":24859,"BSTAR":0.00000636038,"MEAN_MOTION_DOT":1.5e-7,"MEAN_MOTION_DDOT":0},{"OBJECT_NAME":"ONEWEB-0242","OBJECT_ID":"2021-045F","EPOCH":"2026-07-19T05:14:09.141504","CLASSIFICATION_TYPE":"U","MEAN_MOTION":13.15548189,"ECCENTRICITY":0.00019687,"INCLINATION":87.899,"RA_OF_ASC_NODE":252.8086,"ARG_OF_PERICENTER":102.8219,"MEAN_ANOMALY":257.3131,"EPHEMERIS_TYPE":0,"NORAD_CAT_ID":48772,"ELEMENT_SET_NO":999,"REV_AT_EPOCH":24863,"BSTAR":0.00040695917,"MEAN_MOTION_DOT":0.00000166,"MEAN_MOTION_DDOT":0},{"OBJECT_NAME":"ONEWEB-0241","OBJECT_ID":"2021-045G","EPOCH":"2026-07-19T04:55:56.600544","CLASSIFICATION_TYPE":"U","MEAN_MOTION":13.15537706,"ECCENTRICITY":0.00024095,"INCLINATION":87.8975,"RA_OF_ASC_NODE":252.8255,"ARG_OF_PERICENTER":104.735,"MEAN_ANOMALY":255.4047,"EPHEMERIS_TYPE":0,"NORAD_CAT_ID":48773,"ELEMENT_SET_NO":999,"REV_AT_EPOCH":24854,"BSTAR":0.00039491592,"MEAN_MOTION_DOT":0.00000161,"MEAN_MOTION_DDOT":0},{"OBJECT_NAME":"ONEWEB-0243","OBJECT_ID":"2021-045H","EPOCH":"2026-07-19T03:51:58.772160","CLASSIFICATION_TYPE":"U","MEAN_MOTION":13.15551017,"ECCENTRICITY":0.00019177,"INCLINATION":87.8982,"RA_OF_ASC_NODE":252.8473,"ARG_OF_PERICENTER":112.0905,"MEAN_ANOMALY":248.0429,"EPHEMERIS_TYPE":0,"NORAD_CAT_ID":48774,"ELEMENT_SET_NO":999,"REV_AT_EPOCH":24856,"BSTAR":0.000016297401,"MEAN_MOTION_DOT":1.9e-7,"MEAN_MOTION_DDOT":0},{"OBJECT_NAME":"ONEWEB-0222","OBJECT_ID":"2021-045J","EPOCH":"2026-07-19T03:28:02.839584","CLASSIFICATION_TYPE":"U","MEAN_MOTION":13.1555067,"ECCENTRICITY":0.00021729,"INCLINATION":87.8985,"RA_OF_ASC_NODE":252.8209,"ARG_OF_PERICENTER":98.6978,"MEAN_ANOMALY":261.4398,"EPHEMERIS_TYPE":0,"NORAD_CAT_ID":48775,"ELEMENT_SET_NO":999,"REV_AT_EPOCH":24860,"BSTAR":-0.0015724208,"MEAN_MOTION_DOT":-0.00000579,"MEAN_MOTION_DDOT":0},{"OBJECT_NAME":"ONEWEB-0244","OBJECT_ID":"2021-045K","EPOCH":"2026-07-19T04:05:42.017280","CLASSIFICATION_TYPE":"U","MEAN_MOTION":13.15548727,"ECCENTRICITY":0.00020937,"INCLINATION":87.8994,"RA_OF_ASC_NODE":252.8119,"ARG_OF_PERICENTER":100.8078,"MEAN_ANOMALY":259.3288,"EPHEMERIS_TYPE":0,"NORAD_CAT_ID":48776,"ELEMENT_SET_NO":999,"REV_AT_EPOCH":24917,"BSTAR":-0.00012232428,"MEAN_MOTION_DOT":-3.3e-7,"MEAN_MOTION_DDOT":0},{"OBJECT_NAME":"ONEWEB-0247","OBJECT_ID":"2021-045L","EPOCH":"2026-07-19T04:01:06.490272","CLASSIFICATION_TYPE":"U","MEAN_MOTION":13.15546967,"ECCENTRICITY":0.00022401,"INCLINATION":87.8988,"RA_OF_ASC_NODE":252.841,"ARG_OF_PERICENTER":120.0708,"MEAN_ANOMALY":240.0645,"EPHEMERIS_TYPE":0,"NORAD_CAT_ID":48777,"ELEMENT_SET_NO":999,"REV_AT_EPOCH":24861,"BSTAR":-0.00028596742,"MEAN_MOTION_DOT":-9.5e-7,"MEAN_MOTION_DDOT":0},{"OBJECT_NAME":"ONEWEB-0245","OBJECT_ID":"2021-045M","EPOCH":"2026-07-19T03:54:16.085088","CLASSIFICATION_TYPE":"U","MEAN_MOTION":13.15549668,"ECCENTRICITY":0.00022485,"INCLINATION":87.8989,"RA_OF_ASC_NODE":252.8233,"ARG_OF_PERICENTER":98.3187,"MEAN_ANOMALY":261.8198,"EPHEMERIS_TYPE":0,"NORAD_CAT_ID":48778,"ELEMENT_SET_NO":999,"REV_AT_EPOCH":24858,"BSTAR":-0.000033322325,"MEAN_MOTION_DOT":0,"MEAN_MOTION_DDOT":0},{"OBJECT_NAME":"ONEWEB-0229","OBJECT_ID":"2021-045N","EPOCH":"2026-07-19T03:47:26.723616","CLASSIFICATION_TYPE":"U","MEAN_MOTION":13.15548583,"ECCENTRICITY":0.00019479,"INCLINATION":87.8993,"RA_OF_ASC_NODE":252.8229,"ARG_OF_PERICENTER":98.4427,"MEAN_ANOMALY":261.6924,"EPHEMERIS_TYPE":0,"NORAD_CAT_ID":48779,"ELEMENT_SET_NO":999,"REV_AT_EPOCH":24861,"BSTAR":0.00027267915,"MEAN_MOTION_DOT":0.00000115,"MEAN_MOTION_DDOT":0},{"OBJECT_NAME":"ONEWEB-0228","OBJECT_ID":"2021-045P","EPOCH":"2026-07-19T04:35:32.867232","CLASSIFICATION_TYPE":"U","MEAN_MOTION":13.15548752,"ECCENTRICITY":0.00021594,"INCLINATION":87.8993,"RA_OF_ASC_NODE":252.8102,"ARG_OF_PERICENTER":100.8641,"MEAN_ANOMALY":259.2733,"EPHEMERIS_TYPE":0,"NORAD_CAT_ID":48780,"ELEMENT_SET_NO":999,"REV_AT_EPOCH":24853,"BSTAR":-0.000091445031,"MEAN_MOTION_DOT":-2.2e-7,"MEAN_MOTION_DDOT":0},{"OBJECT_NAME":"ONEWEB-0232","OBJECT_ID":"2021-045Q","EPOCH":"2026-07-19T03:58:51.568032","CLASSIFICATION_TYPE":"U","MEAN_MOTION":13.15548223,"ECCENTRICITY":0.00021909,"INCLINATION":87.899,"RA_OF_ASC_NODE":252.8148,"ARG_OF_PERICENTER":97.0473,"MEAN_ANOMALY":263.0907,"EPHEMERIS_TYPE":0,"NORAD_CAT_ID":48781,"ELEMENT_SET_NO":999,"REV_AT_EPOCH":24885,"BSTAR":-0.000058997775,"MEAN_MOTION_DOT":-9e-8,"MEAN_MOTION_DDOT":0},{"OBJECT_NAME":"ONEWEB-0231","OBJECT_ID":"2021-045R","EPOCH":"2026-07-19T05:16:26.002560","CLASSIFICATION_TYPE":"U","MEAN_MOTION":13.155494,"ECCENTRICITY":0.0002198,"INCLINATION":87.8986,"RA_OF_ASC_NODE":252.8173,"ARG_OF_PERICENTER":102.3457,"MEAN_ANOMALY":257.792,"EPHEMERIS_TYPE":0,"NORAD_CAT_ID":48782,"ELEMENT_SET_NO":999,"REV_AT_EPOCH":24855,"BSTAR":0.00062421161,"MEAN_MOTION_DOT":0.00000248,"MEAN_MOTION_DDOT":0},{"OBJECT_NAME":"ONEWEB-0234","OBJECT_ID":"2021-045S","EPOCH":"2026-07-19T04:21:28.565568","CLASSIFICATION_TYPE":"U","MEAN_MOTION":13.15547818,"ECCENTRICITY":0.00026624,"INCLINATION":87.8994,"RA_OF_ASC_NODE":252.8059,"ARG_OF_PERICENTER":82.8851,"MEAN_ANOMALY":277.2582,"EPHEMERIS_TYPE":0,"NORAD_CAT_ID":48783,"ELEMENT_SET_NO":999,"REV_AT_EPOCH":24868,"BSTAR":-0.00015768926,"MEAN_MOTION_DOT":-4.7e-7,"MEAN_MOTION_DDOT":0},{"OBJECT_NAME":"ONEWEB-0238","OBJECT_ID":"2021-045T","EPOCH":"2026-07-19T04:21:50.670144","CLASSIFICATION_TYPE":"U","MEAN_MOTION":13.1554857,"ECCENTRICITY":0.00023466,"INCLINATION":87.8995,"RA_OF_ASC_NODE":252.8024,"ARG_OF_PERICENTER":88.8876,"MEAN_ANOMALY":271.2523,"EPHEMERIS_TYPE":0,"NORAD_CAT_ID":48784,"ELEMENT_SET_NO":999,"REV_AT_EPOCH":24858,"BSTAR":-0.00032048726,"MEAN_MOTION_DOT":-0.00000108,"MEAN_MOTION_DDOT":0},{"OBJECT_NAME":"ONEWEB-0240","OBJECT_ID":"2021-045U","EPOCH":"2026-07-19T04:52:27.628320","CLASSIFICATION_TYPE":"U","MEAN_MOTION":13.15549109,"ECCENTRICITY":0.00023732,"INCLINATION":87.899,"RA_OF_ASC_NODE":252.8073,"ARG_OF_PERICENTER":101.1317,"MEAN_ANOMALY":259.0081,"EPHEMERIS_TYPE":0,"NORAD_CAT_ID":48785,"ELEMENT_SET_NO":999,"REV_AT_EPOCH":24861,"BSTAR":0.00032177687,"MEAN_MOTION_DOT":0.00000134,"MEAN_MOTION_DDOT":0},{"OBJECT_NAME":"ONEWEB-0246","OBJECT_ID":"2021-045V","EPOCH":"2026-07-19T04:44:29.330880","CLASSIFICATION_TYPE":"U","MEAN_MOTION":13.15547446,"ECCENTRICITY":0.00020088,"INCLINATION":87.8993,"RA_OF_ASC_NODE":252.8118,"ARG_OF_PERICENTER":105.214,"MEAN_ANOMALY":254.9212,"EPHEMERIS_TYPE":0,"NORAD_CAT_ID":48786,"ELEMENT_SET_NO":999,"REV_AT_EPOCH":24848,"BSTAR":0.000074361044,"MEAN_MOTION_DOT":4.1e-7,"MEAN_MOTION_DDOT":0},{"OBJECT_NAME":"ONEWEB-0210","OBJECT_ID":"2021-045W","EPOCH":"2026-07-19T04:07:58.740096","CLASSIFICATION_TYPE":"U","MEAN_MOTION":13.15548201,"ECCENTRICITY":0.00019387,"INCLINATION":87.899,"RA_OF_ASC_NODE":252.8143,"ARG_OF_PERICENTER":121.7701,"MEAN_ANOMALY":238.3618,"EPHEMERIS_TYPE":0,"NORAD_CAT_ID":48787,"ELEMENT_SET_NO":999,"REV_AT_EPOCH":24852,"BSTAR":-0.00017872647,"MEAN_MOTION_DOT":-5.4e-7,"MEAN_MOTION_DDOT":0},{"OBJECT_NAME":"ONEWEB-0214","OBJECT_ID":"2021-045X","EPOCH":"2026-07-19T04:20:31.100928","CLASSIFICATION_TYPE":"U","MEAN_MOTION":13.15546784,"ECCENTRICITY":0.00017374,"INCLINATION":87.899,"RA_OF_ASC_NODE":252.8098,"ARG_OF_PERICENTER":101.9721,"MEAN_ANOMALY":258.1604,"EPHEMERIS_TYPE":0,"NORAD_CAT_ID":48788,"ELEMENT_SET_NO":999,"REV_AT_EPOCH":24849,"BSTAR":-0.00025699549,"MEAN_MOTION_DOT":-8.4e-7,"MEAN_MOTION_DDOT":0},{"OBJECT_NAME":"ONEWEB-0221","OBJECT_ID":"2021-045Y","EPOCH":"2026-07-19T04:30:48.050496","CLASSIFICATION_TYPE":"U","MEAN_MOTION":13.15548924,"ECCENTRICITY":0.00021769,"INCLINATION":87.8989,"RA_OF_ASC_NODE":252.8169,"ARG_OF_PERICENTER":101.2821,"MEAN_ANOMALY":258.8554,"EPHEMERIS_TYPE":0,"NORAD_CAT_ID":48789,"ELEMENT_SET_NO":999,"REV_AT_EPOCH":24858,"BSTAR":0.000056536794,"MEAN_MOTION_DOT":3.4e-7,"MEAN_MOTION_DDOT":0},{"OBJECT_NAME":"ONEWEB-0213","OBJECT_ID":"2021-045Z","EPOCH":"2026-07-19T04:14:49.422624","CLASSIFICATION_TYPE":"U","MEAN_MOTION":13.15549085,"ECCENTRICITY":0.00021197,"INCLINATION":87.899,"RA_OF_ASC_NODE":252.8219,"ARG_OF_PERICENTER":104.9935,"MEAN_ANOMALY":255.143,"EPHEMERIS_TYPE":0,"NORAD_CAT_ID":48790,"ELEMENT_SET_NO":999,"REV_AT_EPOCH":24864,"BSTAR":-0.00052726295,"MEAN_MOTION_DOT":-0.00000186,"MEAN_MOTION_DDOT":0},{"OBJECT_NAME":"ONEWEB-0212","OBJECT_ID":"2021-045AA","EPOCH":"2026-07-19T05:31:15.293568","CLASSIFICATION_TYPE":"U","MEAN_MOTION":13.15546493,"ECCENTRICITY":0.00020085,"INCLINATION":87.8992,"RA_OF_ASC_NODE":252.8056,"ARG_OF_PERICENTER":95.6678,"MEAN_ANOMALY":264.4681,"EPHEMERIS_TYPE":0,"NORAD_CAT_ID":48791,"ELEMENT_SET_NO":999,"REV_AT_EPOCH":24864,"BSTAR":-0.00014058435,"MEAN_MOTION_DOT":-4e-7,"MEAN_MOTION_DDOT":0},{"OBJECT_NAME":"ONEWEB-0227","OBJECT_ID":"2021-045AB","EPOCH":"2026-07-19T03:40:36.053184","CLASSIFICATION_TYPE":"U","MEAN_MOTION":13.15547846,"ECCENTRICITY":0.00020978,"INCLINATION":87.8991,"RA_OF_ASC_NODE":252.8211,"ARG_OF_PERICENTER":99.0648,"MEAN_ANOMALY":261.072,"EPHEMERIS_TYPE":0,"NORAD_CAT_ID":48792,"ELEMENT_SET_NO":999,"REV_AT_EPOCH":24858,"BSTAR":0.00011882901,"MEAN_MOTION_DOT":5.8e-7,"MEAN_MOTION_DDOT":0},{"OBJECT_NAME":"ONEWEB-0226","OBJECT_ID":"2021-045AC","EPOCH":"2026-07-19T05:20:59.811936","CLASSIFICATION_TYPE":"U","MEAN_MOTION":13.15547151,"ECCENTRICITY":0.00019907,"INCLINATION":87.8987,"RA_OF_ASC_NODE":252.8115,"ARG_OF_PERICENTER":103.3266,"MEAN_ANOMALY":256.8086,"EPHEMERIS_TYPE":0,"NORAD_CAT_ID":48793,"ELEMENT_SET_NO":999,"REV_AT_EPOCH":24856,"BSTAR":0.00032112273,"MEAN_MOTION_DOT":0.00000134,"MEAN_MOTION_DDOT":0}]}
